OBJECT_NAME,OBJECT_ID,EPOCH,MEAN_MOTION,ECCENTRICITY,INCLINATION,RA_OF_ASC_NODE,ARG_OF_PERICENTER,MEAN_ANOMALY,EPHEMERIS_TYPE,CLASSIFICATION_TYPE,NORAD_CAT_ID,ELEMENT_SET_NO,REV_AT_EPOCH,BSTAR,MEAN_MOTION_DOT,MEAN_MOTION_DDOT
STARLINK-4609,2022-104AH,2025-07-26T03:20:21.909408,15.08835126,.0001543,53.2173,171.1426,68.0300,292.0856,0,U,53619,999,16086,.14173E-6,-.286E-5,0
STARLINK-4615,2022-104AJ,2025-07-26T04:34:31.348704,15.08836982,.000131,53.2165,170.7518,81.3510,278.7631,0,U,53620,999,16087,.21666E-4,.57E-6,0
STARLINK-4608,2022-104AK,2025-07-25T04:59:40.319520,15.08843046,.000131,53.2164,175.2829,79.2837,280.8303,0,U,53621,999,16129,.10014E-3,.1306E-4,0
STARLINK-4568,2022-104AL,2025-07-25T04:11:54.318336,15.08838587,.0001277,53.2165,175.0794,82.8651,277.2486,0,U,53622,999,16140,-.20938E-5,-.321E-5,0
STARLINK-4573,2022-104AM,2025-07-25T22:18:17.405568,15.08835825,.0001287,53.2167,171.9655,79.4145,280.6992,0,U,53623,999,16151,.66229E-5,-.182E-5,0
STARLINK-4596,2022-104AN,2025-07-25T04:33:07.453440,15.08838709,.0001272,53.2163,175.1668,83.5820,276.5317,0,U,53624,999,16140,-.10433E-4,-.454E-5,0
STARLINK-4554,2022-104AQ,2025-07-25T04:17:12.708384,15.08838528,.0001474,53.2167,175.1002,78.7761,281.3397,0,U,53626,999,16141,-.64022E-5,-.39E-5,0
STARLINK-4595,2022-104AR,2025-07-25T04:27:49.888512,15.08839290,.0001279,53.2163,175.1438,79.2809,280.8327,0,U,53627,999,16141,.88131E-4,.1115E-4,0
STARLINK-4600,2022-104AS,2025-07-26T03:57:22.735872,15.08841497,.0001485,53.2168,170.5931,86.8615,273.2548,0,U,53628,999,16087,.15883E-4,-.35E-6,0
STARLINK-4602,2022-104AT,2025-07-26T04:13:17.868864,15.08839229,.0001345,53.2166,170.6582,83.9997,276.1148,0,U,53629,999,16087,.36353E-5,-.23E-5,0
STARLINK-4598,2022-104AU,2025-07-25T06:48:21.601440,15.08844159,.0001331,53.2166,165.0589,83.5040,276.6104,0,U,53630,999,16173,.4052E-4,.357E-5,0
STARLINK-4599,2022-104AV,2025-07-25T05:36:40.768416,15.08835068,.0001324,53.2161,174.7328,78.7693,281.3448,0,U,53631,999,16142,.22599E-4,.72E-6,0
STARLINK-4606,2022-104AW,2025-07-25T05:00:59.336640,15.08841179,.0001518,53.2167,165.3065,63.3150,296.7998,0,U,53632,999,16188,.32151E-4,.224E-5,0
STARLINK-4593,2022-104AX,2025-07-26T03:21:41.590080,15.08843977,.0001379,53.2162,161.1644,54.6059,305.5062,0,U,53633,999,16100,-.44935E-4,-.1003E-4,0
STARLINK-4592,2022-104AY,2025-07-25T06:25:45.565536,15.08840124,.0001418,53.2162,164.9640,84.0512,276.0641,0,U,53634,999,16189,.17597E-4,-.8E-7,0
STARLINK-4587,2022-104AZ,2025-07-26T04:46:28.730496,15.08847650,.0001468,53.2169,160.8249,76.9523,283.1633,0,U,53635,999,16101,.14859E-3,.2078E-4,0
STARLINK-4586,2022-104BA,2025-07-26T04:30:34.048512,15.08900674,.0001216,53.2165,160.7557,91.9058,268.2073,0,U,53636,999,16101,.16154E-2,.25557E-3,0
STARLINK-4396,2022-104BB,2025-07-26T03:44:17.515392,15.08838135,.0001515,53.2171,161.2541,76.1540,283.9621,0,U,53637,999,16100,.53356E-7,-.287E-5,0
STARLINK-4594,2022-104BC,2025-07-25T04:13:14.109600,15.08834611,.0001366,53.2166,165.1042,85.2012,274.9136,0,U,53638,999,16188,-.3173E-4,-.793E-5,0
STARLINK-4422,2022-104BD,2025-07-25T06:09:50.679648,15.08836495,.0001429,53.2167,164.8951,81.4747,278.6407,0,U,53639,999,16172,.43944E-5,-.218E-5,0
STARLINK-4597,2022-104BE,2025-07-26T04:19:56.361216,15.08836264,.0001446,53.2177,160.7132,93.4911,266.6246,0,U,53640,999,16101,.33923E-4,.252E-5,0
STARLINK-4588,2022-104BF,2025-07-25T06:20:27.274848,15.08838915,.0001387,53.2163,164.9357,87.1307,272.9844,0,U,53641,999,16189,-.1636E-5,-.314E-5,0
STARLINK-4622,2022-105A,2025-07-26T03:50:42.858528,15.01263055,.0002386,97.6585,88.2081,85.0716,275.0780,0,U,53648,999,15954,-.90842E-4,-.1226E-4,0
STARLINK-4386,2022-105B,2025-07-26T03:48:03.556800,15.01247534,.0002023,97.6586,88.2090,87.4464,272.6991,0,U,53649,999,15952,.14639E-3,.1821E-4,0
STARLINK-4380,2022-105C,2025-07-25T10:09:36.590688,15.01263249,.0002464,97.6581,87.4872,71.5985,288.5507,0,U,53650,999,15913,.30484E-4,.333E-5,0
STARLINK-4388,2022-105D,2025-07-25T10:06:56.567520,15.01260357,.0001978,97.6579,87.4869,92.0052,268.1399,0,U,53651,999,15913,.46682E-4,.541E-5,0
STARLINK-4374,2022-105E,2025-07-26T05:16:02.133696,15.01250900,.0002827,97.6566,88.2761,75.8983,284.2555,0,U,53652,999,15953,.34597E-5,-.15E-6,0
STARLINK-4390,2022-105F,2025-07-26T04:06:43.032096,15.01258083,.0003137,97.6557,88.1665,148.7059,211.4353,0,U,53653,999,15952,.63459E-4,.756E-5,0
STARLINK-4420,2022-105G,2025-07-26T05:08:00.769056,15.01272978,.0003517,97.6556,88.2726,66.6031,293.5563,0,U,53654,999,15953,.19892E-3,.2498E-4,0
STARLINK-4470,2022-105H,2025-07-26T05:13:23.035008,15.01246894,.0002875,97.6569,88.2745,75.5055,284.6488,0,U,53655,999,15953,-.36449E-4,-.527E-5,0
