STARLINK-4609           
1 53619U 22104AH  25207.13914247 -.00000286  00000+0  14173-6 0  9998
2 53619  53.2173 171.1426 0001543  68.0300 292.0856 15.08835126160861
STARLINK-4615           
1 53620U 22104AJ  25207.19064061  .00000057  00000+0  21666-4 0  9994
2 53620  53.2165 170.7518 0001310  81.3510 278.7631 15.08836982160878
STARLINK-4608           
1 53621U 22104AK  25206.20810555  .00001306  00000+0  10014-3 0  9995
2 53621  53.2164 175.2829 0001310  79.2837 280.8303 15.08843046161297
STARLINK-4568           
1 53622U 22104AL  25206.17493424 -.00000321  00000+0 -20938-5 0  9990
2 53622  53.2165 175.0794 0001277  82.8651 277.2486 15.08838587161403
STARLINK-4573           
1 53623U 22104AM  25206.92936812 -.00000182  00000+0  66229-5 0  9994
2 53623  53.2167 171.9655 0001287  79.4145 280.6992 15.08835825161512
STARLINK-4596           
1 53624U 22104AN  25206.18966960 -.00000454  00000+0 -10433-4 0  9998
2 53624  53.2163 175.1668 0001272  83.5820 276.5317 15.08838709161406
STARLINK-4554           
1 53626U 22104AQ  25206.17861931 -.00000390  00000+0 -64022-5 0  9994
2 53626  53.2167 175.1002 0001474  78.7761 281.3397 15.08838528161410
STARLINK-4595           
1 53627U 22104AR  25206.18599408  .00001115  00000+0  88131-4 0  9993
2 53627  53.2163 175.1438 0001279  79.2809 280.8327 15.08839290161416
STARLINK-4600           
1 53628U 22104AS  25207.16484648 -.00000035  00000+0  15883-4 0  9997
2 53628  53.2168 170.5931 0001485  86.8615 273.2548 15.08841497160879
STARLINK-4602           
1 53629U 22104AT  25207.17590126 -.00000230  00000+0  36353-5 0  9991
2 53629  53.2166 170.6582 0001345  83.9997 276.1148 15.08839229160875
STARLINK-4598           
1 53630U 22104AU  25206.28358335  .00000357  00000+0  40520-4 0  9997
2 53630  53.2166 165.0589 0001331  83.5040 276.6104 15.08844159161733
STARLINK-4599           
1 53631U 22104AV  25206.23380519  .00000072  00000+0  22599-4 0  9992
2 53631  53.2161 174.7328 0001324  78.7693 281.3448 15.08835068161428
STARLINK-4606           
1 53632U 22104AW  25206.20902010  .00000224  00000+0  32151-4 0  9990
2 53632  53.2167 165.3065 0001518  63.3150 296.7998 15.08841179161882
STARLINK-4593           
1 53633U 22104AX  25207.14006470 -.00001003  00000+0 -44935-4 0  9991
2 53633  53.2162 161.1644 0001379  54.6059 305.5062 15.08843977161004
STARLINK-4592           
1 53634U 22104AY  25206.26788849 -.00000008  00000+0  17597-4 0  9998
2 53634  53.2162 164.9640 0001418  84.0512 276.0641 15.08840124161890
STARLINK-4587           
1 53635U 22104AZ  25207.19894364  .00002078  00000+0  14859-3 0  9997
2 53635  53.2169 160.8249 0001468  76.9523 283.1633 15.08847650161010
STARLINK-4586           
1 53636U 22104BA  25207.18789408  .00025557  00000+0  16154-2 0  9995
2 53636  53.2165 160.7557 0001216  91.9058 268.2073 15.08900674161017
STARLINK-4396           
1 53637U 22104BB  25207.15575828 -.00000287  00000+0  53356-7 0  9996
2 53637  53.2171 161.2541 0001515  76.1540 283.9621 15.08838135161001
STARLINK-4594           
1 53638U 22104BC  25206.17585775 -.00000793  00000+0 -31730-4 0  9992
2 53638  53.2166 165.1042 0001366  85.2012 274.9136 15.08834611161886
STARLINK-4422           
1 53639U 22104BD  25206.25683657 -.00000218  00000+0  43944-5 0  9992
2 53639  53.2167 164.8951 0001429  81.4747 278.6407 15.08836495161723
STARLINK-4597           
1 53640U 22104BE  25207.18051344  .00000252  00000+0  33923-4 0  9991
2 53640  53.2177 160.7132 0001446  93.4911 266.6246 15.08836264161011
STARLINK-4588           
1 53641U 22104BF  25206.26420457 -.00000314  00000+0 -16360-5 0  9993
2 53641  53.2163 164.9357 0001387  87.1307 272.9844 15.08838915161890
STARLINK-4622           
1 53648U 22105A   25207.16021827 -.00001226  00000+0 -90842-4 0  9998
2 53648  97.6585  88.2081 0002386  85.0716 275.0780 15.01263055159542
STARLINK-4386           
1 53649U 22105B   25207.15837450  .00001821  00000+0  14639-3 0  9993
2 53649  97.6586  88.2090 0002023  87.4464 272.6991 15.01247534159527
STARLINK-4380           
1 53650U 22105C   25206.42334017  .00000333  00000+0  30484-4 0  9999
2 53650  97.6581  87.4872 0002464  71.5985 288.5507 15.01263249159131
STARLINK-4388           
1 53651U 22105D   25206.42148805  .00000541  00000+0  46682-4 0  9996
2 53651  97.6579  87.4869 0001978  92.0052 268.1399 15.01260357159137
STARLINK-4374           
1 53652U 22105E   25207.21946914 -.00000015  00000+0  34597-5 0  9992
2 53652  97.6566  88.2761 0002827  75.8983 284.2555 15.01250900159530
STARLINK-4390           
1 53653U 22105F   25207.17133139  .00000756  00000+0  63459-4 0  9994
2 53653  97.6557  88.1665 0003137 148.7059 211.4353 15.01258083159529
STARLINK-4420           
1 53654U 22105G   25207.21389779  .00002498  00000+0  19892-3 0  9999
2 53654  97.6556  88.2726 0003517  66.6031 293.5563 15.01272978159532
STARLINK-4470           
1 53655U 22105H   25207.21762772 -.00000527  00000+0 -36449-4 0  9999
2 53655  97.6569  88.2745 0002875  75.5055 284.6488 15.01246894159534
